{
  "norad_id": 45026,
  "name": "GSAT-30",
  "history": [
    {
      "epoch": "2026-03-28T22:01:31.440000Z",
      "apogee_km": 35792.993109760435,
      "perigee_km": 35780.46930060612,
      "latitude_deg": 0.04050244277829465,
      "longitude_deg": 82.99979633634665,
      "height_km": 35792.42668698579,
      "semi_major_axis_km": 42164.86820518328,
      "eccentricity": 0.00014851,
      "inclination_deg": 0.055,
      "raan_deg": 85.029,
      "arg_perigee_deg": 340.8301,
      "mean_anomaly_deg": 173.8278,
      "mean_motion_rev_day": 1.00271299
    },
    {
      "epoch": "2026-03-29T01:26:56.660928Z",
      "apogee_km": 35793.059019601125,
      "perigee_km": 35780.40955821445,
      "latitude_deg": -0.0005265029403603206,
      "longitude_deg": 82.98559550623142,
      "height_km": 35790.65971402222,
      "semi_major_axis_km": 42164.87128890779,
      "eccentricity": 0.00015,
      "inclination_deg": 0.0554,
      "raan_deg": 84.9209,
      "arg_perigee_deg": 341.1993,
      "mean_anomaly_deg": 225.0622,
      "mean_motion_rev_day": 1.00271288
    },
    {
      "epoch": "2026-03-30T03:07:05.114784Z",
      "apogee_km": 35793.48541336541,
      "perigee_km": 35780.00951629044,
      "latitude_deg": -0.022759561044470692,
      "longitude_deg": 82.97754644589911,
      "height_km": 35788.54397641267,
      "semi_major_axis_km": 42164.88446482793,
      "eccentricity": 0.0001598,
      "inclination_deg": 0.0585,
      "raan_deg": 84.4478,
      "arg_perigee_deg": 343.1326,
      "mean_anomaly_deg": 249.6897,
      "mean_motion_rev_day": 1.00271241
    },
    {
      "epoch": "2026-03-30T09:57:48.221280Z",
      "apogee_km": 35793.62173434226,
      "perigee_km": 35779.88272683536,
      "latitude_deg": -0.04241222168658795,
      "longitude_deg": 82.99104347866,
      "height_km": 35779.453661322135,
      "semi_major_axis_km": 42164.889230588815,
      "eccentricity": 0.00016292,
      "inclination_deg": 0.0593,
      "raan_deg": 84.3685,
      "arg_perigee_deg": 343.3109,
      "mean_anomaly_deg": 352.5507,
      "mean_motion_rev_day": 1.00271224
    },
    {
      "epoch": "2026-03-30T20:13:51.591936Z",
      "apogee_km": 35793.76354749224,
      "perigee_km": 35779.742035041054,
      "latitude_deg": 0.05255269107841454,
      "longitude_deg": 83.0023980635067,
      "height_km": 35792.07292082953,
      "semi_major_axis_km": 42164.88979126665,
      "eccentricity": 0.00016627,
      "inclination_deg": 0.0604,
      "raan_deg": 84.1724,
      "arg_perigee_deg": 344.1473,
      "mean_anomaly_deg": 146.3457,
      "mean_motion_rev_day": 1.00271222
    },
    {
      "epoch": "2026-03-31T20:11:30.391872Z",
      "apogee_km": 35794.18165207939,
      "perigee_km": 35779.34803961002,
      "latitude_deg": 0.05260505937223326,
      "longitude_deg": 82.99844623687844,
      "height_km": 35792.36133135314,
      "semi_major_axis_km": 42164.90184584471,
      "eccentricity": 0.0001759,
      "inclination_deg": 0.063,
      "raan_deg": 83.72,
      "arg_perigee_deg": 345.8693,
      "mean_anomaly_deg": 145.4698,
      "mean_motion_rev_day": 1.00271179
    },
    {
      "epoch": "2026-04-01T19:43:38.690112Z",
      "apogee_km": 35794.42614800787,
      "perigee_km": 35778.707146488174,
      "latitude_deg": 0.053370261528101086,
      "longitude_deg": 82.9986498187816,
      "height_km": 35792.145469131356,
      "semi_major_axis_km": 42164.703647248025,
      "eccentricity": 0.0001864,
      "inclination_deg": 0.0654,
      "raan_deg": 83.3504,
      "arg_perigee_deg": 344.9943,
      "mean_anomaly_deg": 140.7167,
      "mean_motion_rev_day": 1.00271886
    },
    {
      "epoch": "2026-04-02T17:26:51.677664Z",
      "apogee_km": 35794.515052288574,
      "perigee_km": 35778.11308082368,
      "latitude_deg": 0.04783399028694911,
      "longitude_deg": 83.0077150480556,
      "height_km": 35788.338496677585,
      "semi_major_axis_km": 42164.451066556125,
      "eccentricity": 0.0001945,
      "inclination_deg": 0.0675,
      "raan_deg": 83.083,
      "arg_perigee_deg": 344.9161,
      "mean_anomaly_deg": 107.7625,
      "mean_motion_rev_day": 1.00272787
    },
    {
      "epoch": "2026-04-02T21:49:08.626368Z",
      "apogee_km": 35794.56198543931,
      "perigee_km": 35778.07399695955,
      "latitude_deg": 0.0420537418619508,
      "longitude_deg": 82.9894461973222,
      "height_km": 35793.97960082391,
      "semi_major_axis_km": 42164.45499119943,
      "eccentricity": 0.00019552,
      "inclination_deg": 0.0679,
      "raan_deg": 82.9939,
      "arg_perigee_deg": 345.2339,
      "mean_anomaly_deg": 173.2848,
      "mean_motion_rev_day": 1.00272773
    },
    {
      "epoch": "2026-04-03T20:04:05.556288Z",
      "apogee_km": 35794.90711800532,
      "perigee_km": 35777.77147483845,
      "latitude_deg": 0.0526072967592382,
      "longitude_deg": 83.00057008286764,
      "height_km": 35792.993311952145,
      "semi_major_axis_km": 42164.47629642189,
      "eccentricity": 0.0002032,
      "inclination_deg": 0.0698,
      "raan_deg": 82.768,
      "arg_perigee_deg": 346.7364,
      "mean_anomaly_deg": 146.6625,
      "mean_motion_rev_day": 1.00272697
    },
    {
      "epoch": "2026-04-04T05:25:38.591904Z",
      "apogee_km": 35795.028363802834,
      "perigee_km": 35777.687793556775,
      "latitude_deg": -0.05096042350245453,
      "longitude_deg": 82.96593408107145,
      "height_km": 35783.288302434135,
      "semi_major_axis_km": 42164.49507867981,
      "eccentricity": 0.00020563,
      "inclination_deg": 0.0706,
      "raan_deg": 82.7333,
      "arg_perigee_deg": 347.2398,
      "mean_anomaly_deg": 286.9672,
      "mean_motion_rev_day": 1.0027263
    },
    {
      "epoch": "2026-04-05T13:21:51.216192Z",
      "apogee_km": 35795.479597608304,
      "perigee_km": 35777.28982294248,
      "latitude_deg": 0.012583765657734529,
      "longitude_deg": 83.00790059374984,
      "height_km": 35779.58956605131,
      "semi_major_axis_km": 42164.521710275396,
      "eccentricity": 0.0002157,
      "inclination_deg": 0.0732,
      "raan_deg": 82.6595,
      "arg_perigee_deg": 348.7146,
      "mean_anomaly_deg": 45.9344,
      "mean_motion_rev_day": 1.00272535
    },
    {
      "epoch": "2026-04-05T21:07:21.592128Z",
      "apogee_km": 35795.589193739295,
      "perigee_km": 35777.20545677348,
      "latitude_deg": 0.04431269521152597,
      "longitude_deg": 82.99826787763944,
      "height_km": 35794.64406536619,
      "semi_major_axis_km": 42164.53432525639,
      "eccentricity": 0.000218,
      "inclination_deg": 0.0738,
      "raan_deg": 82.6452,
      "arg_perigee_deg": 348.9772,
      "mean_anomaly_deg": 162.3824,
      "mean_motion_rev_day": 1.0027249
    },
    {
      "epoch": "2026-04-06T04:19:38.801280Z",
      "apogee_km": 35795.66406533191,
      "perigee_km": 35777.16310382641,
      "latitude_deg": -0.05099371475991255,
      "longitude_deg": 82.96606993165167,
      "height_km": 35785.780670275235,
      "semi_major_axis_km": 42164.55058457916,
      "eccentricity": 0.00021939,
      "inclination_deg": 0.0744,
      "raan_deg": 82.6909,
      "arg_perigee_deg": 349.1292,
      "mean_anomaly_deg": 270.553,
      "mean_motion_rev_day": 1.00272432
    },
    {
      "epoch": "2026-04-07T14:44:00.560832Z",
      "apogee_km": 35796.037218027595,
      "perigee_km": 35776.90544864243,
      "latitude_deg": 0.0414525121739203,
      "longitude_deg": 83.01680514913076,
      "height_km": 35782.14963040468,
      "semi_major_axis_km": 42164.60833333501,
      "eccentricity": 0.00022687,
      "inclination_deg": 0.0771,
      "raan_deg": 82.7749,
      "arg_perigee_deg": 350.8412,
      "mean_anomaly_deg": 66.2636,
      "mean_motion_rev_day": 1.00272226
    },
    {
      "epoch": "2026-04-07T19:54:12.123936Z",
      "apogee_km": 35796.087927439614,
      "perigee_km": 35776.87772664642,
      "latitude_deg": 0.055358085985986946,
      "longitude_deg": 83.0087028851284,
      "height_km": 35793.742488187374,
      "semi_major_axis_km": 42164.61982704302,
      "eccentricity": 0.0002278,
      "inclination_deg": 0.0774,
      "raan_deg": 82.7849,
      "arg_perigee_deg": 350.936,
      "mean_anomaly_deg": 143.9198,
      "mean_motion_rev_day": 1.00272185
    },
    {
      "epoch": "2026-04-07T21:36:54.773280Z",
      "apogee_km": 35796.11209413264,
      "perigee_km": 35776.859727311596,
      "latitude_deg": 0.03636842290775851,
      "longitude_deg": 82.99820256739405,
      "height_km": 35795.4348648149,
      "semi_major_axis_km": 42164.622910722115,
      "eccentricity": 0.0002283,
      "inclination_deg": 0.0776,
      "raan_deg": 82.7678,
      "arg_perigee_deg": 350.9926,
      "mean_anomaly_deg": 169.6285,
      "mean_motion_rev_day": 1.00272174
    },
    {
      "epoch": "2026-04-09T13:25:38.731584Z",
      "apogee_km": 35796.1769212251,
      "perigee_km": 35776.654733266085,
      "latitude_deg": 0.0005886809553079098,
      "longitude_deg": 83.01596153213282,
      "height_km": 35780.43671615873,
      "semi_major_axis_km": 42164.5528272456,
      "eccentricity": 0.0002315,
      "inclination_deg": 0.0417,
      "raan_deg": 82.0924,
      "arg_perigee_deg": 344.4551,
      "mean_anomaly_deg": 55.6608,
      "mean_motion_rev_day": 1.00272424
    },
    {
      "epoch": "2026-04-10T02:34:38.559936Z",
      "apogee_km": 35796.10140662167,
      "perigee_km": 35775.86178641297,
      "latitude_deg": 0.03098378723928912,
      "longitude_deg": 82.9688316161111,
      "height_km": 35787.22220456878,
      "semi_major_axis_km": 42164.11859651732,
      "eccentricity": 0.00024001,
      "inclination_deg": 0.0145,
      "raan_deg": 240.0823,
      "arg_perigee_deg": 180.1142,
      "mean_anomaly_deg": 259.8034,
      "mean_motion_rev_day": 1.00273973
    }
  ]
}